STARLINK-36466          
1 67358U 26003AA  26039.09246734  .00075694  00000+0  12833-2 0  9994
2 67358  42.9984  34.5362 0001172 257.0983 102.9746 15.50586314  4297
STARLINK-36499          
1 67359U 26003AB  26039.25002315 -.01974406  00000+0 -65013-1 0  9997
2 67359  43.0000  33.8661 0001323 270.3238 148.9614 15.34471645  5941
STARLINK-36469          
1 67360U 26003AC  26039.25002315 -.02006259  00000+0 -62729-1 0  9993
2 67360  43.0003  33.8116 0001394 279.3258 161.9465 15.36133153  5940
STARLINK-35306          
1 67361U 26003AD  26039.22062719  .00075431  00000+0  13055-2 0  9998
2 67361  42.9950  33.7785 0010549 239.8804 120.1010 15.49947641  4313
STARLINK-36428          
1 67362U 26003AE  26039.09158477 -.00451616  00000+0 -87527-2 0  9991
2 67362  42.9995  34.5338 0002674 315.9480  44.1166 15.48545322  4295
LEMUR-2-KUTAR           
1 67363U 26004A   26039.20392289  .00006963  00000+0  78126-3 0  9992
2 67363  97.8007  39.8728 0008362 194.0065 166.0920 14.87071681  4101
LEMUR-2-CALLUM-K-J      
1 67364U 26004B   26039.20203811  .00006881  00000+0  76960-3 0  9998
2 67364  97.8010  39.8756 0008318 189.6655 170.4403 14.87205507  4115
LEMUR-2-MARIO-SOUSA     
1 67365U 26004C   26039.20164855  .00007049  00000+0  78789-3 0  9991
2 67365  97.7985  39.8712 0007897 194.7596 165.3391 14.87226944  4117
TWILIGHT D              
1 67366U 26004D   26038.93239369  .00003967  00000+0  44693-3 0  9996
2 67366  97.8042  39.6183 0008456 185.0111 175.1022 14.87155493  4076
LEMUR-2-SONNENBLUME     
1 67367U 26004E   26039.19951458  .00006813  00000+0  75961-3 0  9991
2 67367  97.7973  39.8714 0007339 196.1140 163.9844 14.87345263  4113
LEMUR-2-WOBLER          
1 67368U 26004F   26039.19886650  .00006065  00000+0  67652-3 0  9990
2 67368  97.8033  39.8850 0007845 184.8919 175.2222 14.87365990  4118
TWILIGHT G              
1 67369U 26004G   26039.26570216  .00003766  00000+0  42330-3 0  9998
2 67369  97.7964  39.9376 0006700 198.0993 161.9986 14.87292771  4129
