CCSDS_OMM_VERS = 2.0
CREATION_DATE  = 
ORIGINATOR     = 

OBJECT_NAME    = STARLINK-36466
OBJECT_ID      = 2026-003AA
CENTER_NAME    = EARTH
REF_FRAME      = TEME
TIME_SYSTEM    = UTC
MEAN_ELEMENT_THEORY = SGP/SGP4

EPOCH          = 2026-02-08T02:13:09.178176
MEAN_MOTION    = 15.50586314
ECCENTRICITY   = .00011721
INCLINATION    = 42.9984
RA_OF_ASC_NODE = 34.5362
ARG_OF_PERICENTER = 257.0983
MEAN_ANOMALY   = 102.9746

EPHEMERIS_TYPE = 0
CLASSIFICATION_TYPE = U
NORAD_CAT_ID   = 67358
ELEMENT_SET_NO = 999
REV_AT_EPOCH   = 429
BSTAR          = .12833048E-2
MEAN_MOTION_DOT = .75694E-3
MEAN_MOTION_DDOT = 0

CCSDS_OMM_VERS = 2.0
CREATION_DATE  = 
ORIGINATOR     = 

OBJECT_NAME    = STARLINK-36499
OBJECT_ID      = 2026-003AB
CENTER_NAME    = EARTH
REF_FRAME      = TEME
TIME_SYSTEM    = UTC
MEAN_ELEMENT_THEORY = SGP/SGP4

EPOCH          = 2026-02-08T06:00:02.000160
MEAN_MOTION    = 15.34471645
ECCENTRICITY   = .00013232
INCLINATION    = 43.0000
RA_OF_ASC_NODE = 33.8661
ARG_OF_PERICENTER = 270.3238
MEAN_ANOMALY   = 148.9614

EPHEMERIS_TYPE = 0
CLASSIFICATION_TYPE = U
NORAD_CAT_ID   = 67359
ELEMENT_SET_NO = 999
REV_AT_EPOCH   = 594
BSTAR          = -.65012754E-1
MEAN_MOTION_DOT = -.1974406E-1
MEAN_MOTION_DDOT = 0

CCSDS_OMM_VERS = 2.0
CREATION_DATE  = 
ORIGINATOR     = 

OBJECT_NAME    = STARLINK-36469
OBJECT_ID      = 2026-003AC
CENTER_NAME    = EARTH
REF_FRAME      = TEME
TIME_SYSTEM    = UTC
MEAN_ELEMENT_THEORY = SGP/SGP4

EPOCH          = 2026-02-08T06:00:02.000160
MEAN_MOTION    = 15.36133153
ECCENTRICITY   = .00013942
INCLINATION    = 43.0003
RA_OF_ASC_NODE = 33.8116
ARG_OF_PERICENTER = 279.3258
MEAN_ANOMALY   = 161.9465

EPHEMERIS_TYPE = 0
CLASSIFICATION_TYPE = U
NORAD_CAT_ID   = 67360
ELEMENT_SET_NO = 999
REV_AT_EPOCH   = 594
BSTAR          = -.62729409E-1
MEAN_MOTION_DOT = -.2006259E-1
MEAN_MOTION_DDOT = 0

CCSDS_OMM_VERS = 2.0
CREATION_DATE  = 
ORIGINATOR     = 

OBJECT_NAME    = STARLINK-35306
OBJECT_ID      = 2026-003AD
CENTER_NAME    = EARTH
REF_FRAME      = TEME
TIME_SYSTEM    = UTC
MEAN_ELEMENT_THEORY = SGP/SGP4

EPOCH          = 2026-02-08T05:17:42.189216
MEAN_MOTION    = 15.49947641
ECCENTRICITY   = .00105495
INCLINATION    = 42.9950
RA_OF_ASC_NODE = 33.7785
ARG_OF_PERICENTER = 239.8804
MEAN_ANOMALY   = 120.1010

EPHEMERIS_TYPE = 0
CLASSIFICATION_TYPE = U
NORAD_CAT_ID   = 67361
ELEMENT_SET_NO = 999
REV_AT_EPOCH   = 431
BSTAR          = .13055443E-2
MEAN_MOTION_DOT = .75431E-3
MEAN_MOTION_DDOT = 0

CCSDS_OMM_VERS = 2.0
CREATION_DATE  = 
ORIGINATOR     = 

OBJECT_NAME    = STARLINK-36428
OBJECT_ID      = 2026-003AE
CENTER_NAME    = EARTH
REF_FRAME      = TEME
TIME_SYSTEM    = UTC
MEAN_ELEMENT_THEORY = SGP/SGP4

EPOCH          = 2026-02-08T02:11:52.924128
MEAN_MOTION    = 15.48545322
ECCENTRICITY   = .00026744
INCLINATION    = 42.9995
RA_OF_ASC_NODE = 34.5338
ARG_OF_PERICENTER = 315.9480
MEAN_ANOMALY   = 44.1166

EPHEMERIS_TYPE = 0
CLASSIFICATION_TYPE = U
NORAD_CAT_ID   = 67362
ELEMENT_SET_NO = 999
REV_AT_EPOCH   = 429
BSTAR          = -.87527369E-2
MEAN_MOTION_DOT = -.451616E-2
MEAN_MOTION_DDOT = 0

CCSDS_OMM_VERS = 2.0
CREATION_DATE  = 
ORIGINATOR     = 

OBJECT_NAME    = LEMUR-2-KUTAR
OBJECT_ID      = 2026-004A
CENTER_NAME    = EARTH
REF_FRAME      = TEME
TIME_SYSTEM    = UTC
MEAN_ELEMENT_THEORY = SGP/SGP4

EPOCH          = 2026-02-08T04:53:38.937696
MEAN_MOTION    = 14.87071681
ECCENTRICITY   = .00083623
INCLINATION    = 97.8007
RA_OF_ASC_NODE = 39.8728
ARG_OF_PERICENTER = 194.0065
MEAN_ANOMALY   = 166.0920

EPHEMERIS_TYPE = 0
CLASSIFICATION_TYPE = U
NORAD_CAT_ID   = 67363
ELEMENT_SET_NO = 999
REV_AT_EPOCH   = 410
BSTAR          = .78126351E-3
MEAN_MOTION_DOT = .6963E-4
MEAN_MOTION_DDOT = 0

CCSDS_OMM_VERS = 2.0
CREATION_DATE  = 
ORIGINATOR     = 

OBJECT_NAME    = LEMUR-2-CALLUM-K-J
OBJECT_ID      = 2026-004B
CENTER_NAME    = EARTH
REF_FRAME      = TEME
TIME_SYSTEM    = UTC
MEAN_ELEMENT_THEORY = SGP/SGP4

EPOCH          = 2026-02-08T04:50:56.092704
MEAN_MOTION    = 14.87205507
ECCENTRICITY   = .00083185
INCLINATION    = 97.8010
RA_OF_ASC_NODE = 39.8756
ARG_OF_PERICENTER = 189.6655
MEAN_ANOMALY   = 170.4403

EPHEMERIS_TYPE = 0
CLASSIFICATION_TYPE = U
NORAD_CAT_ID   = 67364
ELEMENT_SET_NO = 999
REV_AT_EPOCH   = 411
BSTAR          = .7696037E-3
MEAN_MOTION_DOT = .6881E-4
MEAN_MOTION_DDOT = 0

CCSDS_OMM_VERS = 2.0
CREATION_DATE  = 
ORIGINATOR     = 

OBJECT_NAME    = LEMUR-2-MARIO-SOUSA
OBJECT_ID      = 2026-004C
CENTER_NAME    = EARTH
REF_FRAME      = TEME
TIME_SYSTEM    = UTC
MEAN_ELEMENT_THEORY = SGP/SGP4

EPOCH          = 2026-02-08T04:50:22.434720
MEAN_MOTION    = 14.87226944
ECCENTRICITY   = .00078975
INCLINATION    = 97.7985
RA_OF_ASC_NODE = 39.8712
ARG_OF_PERICENTER = 194.7596
MEAN_ANOMALY   = 165.3391

EPHEMERIS_TYPE = 0
CLASSIFICATION_TYPE = U
NORAD_CAT_ID   = 67365
ELEMENT_SET_NO = 999
REV_AT_EPOCH   = 411
BSTAR          = .78789045E-3
MEAN_MOTION_DOT = .7049E-4
MEAN_MOTION_DDOT = 0

CCSDS_OMM_VERS = 2.0
CREATION_DATE  = 
ORIGINATOR     = 

OBJECT_NAME    = TWILIGHT D
OBJECT_ID      = 2026-004D
CENTER_NAME    = EARTH
REF_FRAME      = TEME
TIME_SYSTEM    = UTC
MEAN_ELEMENT_THEORY = SGP/SGP4

EPOCH          = 2026-02-07T22:22:38.814816
MEAN_MOTION    = 14.87155493
ECCENTRICITY   = .0008456
INCLINATION    = 97.8042
RA_OF_ASC_NODE = 39.6183
ARG_OF_PERICENTER = 185.0111
MEAN_ANOMALY   = 175.1022

EPHEMERIS_TYPE = 0
CLASSIFICATION_TYPE = U
NORAD_CAT_ID   = 67366
ELEMENT_SET_NO = 999
REV_AT_EPOCH   = 407
BSTAR          = .44693E-3
MEAN_MOTION_DOT = .3967E-4
MEAN_MOTION_DDOT = 0

CCSDS_OMM_VERS = 2.0
CREATION_DATE  = 
ORIGINATOR     = 

OBJECT_NAME    = LEMUR-2-SONNENBLUME
OBJECT_ID      = 2026-004E
CENTER_NAME    = EARTH
REF_FRAME      = TEME
TIME_SYSTEM    = UTC
MEAN_ELEMENT_THEORY = SGP/SGP4

EPOCH          = 2026-02-08T04:47:18.059712
MEAN_MOTION    = 14.87345263
ECCENTRICITY   = .00073398
INCLINATION    = 97.7973
RA_OF_ASC_NODE = 39.8714
ARG_OF_PERICENTER = 196.1140
MEAN_ANOMALY   = 163.9844

EPHEMERIS_TYPE = 0
CLASSIFICATION_TYPE = U
NORAD_CAT_ID   = 67367
ELEMENT_SET_NO = 999
REV_AT_EPOCH   = 411
BSTAR          = .75960988E-3
MEAN_MOTION_DOT = .6813E-4
MEAN_MOTION_DDOT = 0

CCSDS_OMM_VERS = 2.0
CREATION_DATE  = 
ORIGINATOR     = 

OBJECT_NAME    = LEMUR-2-WOBLER
OBJECT_ID      = 2026-004F
CENTER_NAME    = EARTH
REF_FRAME      = TEME
TIME_SYSTEM    = UTC
MEAN_ELEMENT_THEORY = SGP/SGP4

EPOCH          = 2026-02-08T04:46:22.065600
MEAN_MOTION    = 14.87365990
ECCENTRICITY   = .00078455
INCLINATION    = 97.8033
RA_OF_ASC_NODE = 39.8850
ARG_OF_PERICENTER = 184.8919
MEAN_ANOMALY   = 175.2222

EPHEMERIS_TYPE = 0
CLASSIFICATION_TYPE = U
NORAD_CAT_ID   = 67368
ELEMENT_SET_NO = 999
REV_AT_EPOCH   = 411
BSTAR          = .67652484E-3
MEAN_MOTION_DOT = .6065E-4
MEAN_MOTION_DDOT = 0

CCSDS_OMM_VERS = 2.0
CREATION_DATE  = 
ORIGINATOR     = 

OBJECT_NAME    = TWILIGHT G
OBJECT_ID      = 2026-004G
CENTER_NAME    = EARTH
REF_FRAME      = TEME
TIME_SYSTEM    = UTC
MEAN_ELEMENT_THEORY = SGP/SGP4

EPOCH          = 2026-02-08T06:22:36.666624
MEAN_MOTION    = 14.87292771
ECCENTRICITY   = .00067005
INCLINATION    = 97.7964
RA_OF_ASC_NODE = 39.9376
ARG_OF_PERICENTER = 198.0993
MEAN_ANOMALY   = 161.9986

EPHEMERIS_TYPE = 0
CLASSIFICATION_TYPE = U
NORAD_CAT_ID   = 67369
ELEMENT_SET_NO = 999
REV_AT_EPOCH   = 412
BSTAR          = .42330115E-3
MEAN_MOTION_DOT = .3766E-4
MEAN_MOTION_DDOT = 0

